              M50 Cartesian                         M50 Keplerian  
    -----------------------------------       --------------------------------
     X    =         848517.22                 A    =         6778112.91  meter
     Y    =       -4144444.88  meter          E    =           .0014751
     Z    =       -5308666.54                 I    =           51.75420
     XDOT =       7312.597623                 Wp   =           82.48144
     YDOT =       2203.684134  meter/sec      RA   =           20.03043  deg
     ZDOT =       -551.015420                 TA   =          182.25806
                                              MA   =          182.26473
                                              Ha   =            221.355  n.mi
                                              Hp   =            215.072
 
              M50 Cartesian                         J2K Cartesian  
    -----------------------------------       --------------------------------
     X    =        2783849.13                 X    =          920585.69
     Y    =      -13597260.10  feet           Y    =        -4134553.50  meter
     Z    =      -17416884.97                 Z    =        -5304369.38
     XDOT =      23991.462018                 XDOT =        7290.088597
     YDOT =       7229.934823  feet/sec       YDOT =        2285.332580  meter/sec
     ZDOT =      -1807.793373                 ZDOT =        -515.547283
 
              TDR Cartesian                         TDR Cartesian  
    -----------------------------------       --------------------------------
     X    =       -3599190.17                 X    =        -1097033.16
     Y    =      -13429812.00  feet           Y    =        -4093406.70  meter
     Z    =      -17397389.46                 Z    =        -5302724.31
     XDOT =      23687.531510                 XDOT =        7219.959604
     YDOT =      -4203.059084  feet/sec       YDOT =       -1281.092409  meter/sec
     ZDOT =      -1654.102937                 ZDOT =        -504.170575
  
  
    The mean element set is posted at the UTC for which position is
    just north of the next ascending node relative to the above
    vector time
 
 
    TWO LINE MEAN ELEMENT SET
  
    ISS
    1 25544U 98067A   16104.53293718  .00016717  00000-0  10270-3 0  9142
    2 25544  51.6437  20.5181 0000814 354.9879   5.1265 15.53897721 34928
  
  
    Satellite: ISS
    Catalog Number: 25544
    Epoch time:      16104.53293718   =   yrday.fracday
    Element set:     914
    Inclination:       51.6437  deg
    RA of node:        20.5181  deg
    Eccentricity:     .0000814     
    Arg of perigee:   354.9879  deg
    Mean anomaly:       5.1265  deg
    Mean motion:   15.53897721  rev/day
    Decay rate:    1.67170E-04  rev/day^2
    Epoch rev:            3492
    Checksum:              314
 
 
    Coasting Arc #16 (Orbit 3507)
    ---------------------------------------
 
    Vector Time (GMT): 2016/105/12:23:00.506
    Vector Time (MET): N/A
    Weight (LBS)     : 943644.8
 
              M50 Cartesian                         M50 Keplerian  
    -----------------------------------       --------------------------------
     X    =       -2477597.27                 A    =         6778505.62  meter
     Y    =        3578292.66  meter          E    =           .0004658
     Z    =        5194489.28                 I    =           51.72516
     XDOT =      -6967.255102                 Wp   =           44.57261
     YDOT =      -2933.202377  meter/sec      RA   =           15.04079  deg
     ZDOT =      -1298.624521                 TA   =           57.90448
                                              MA   =           57.85927
                                              Ha   =            221.310  n.mi
                                              Hp   =            215.066
 
              M50 Cartesian                         J2K Cartesian  
    -----------------------------------       --------------------------------
     X    =       -8128599.97                 X    =        -2542659.14
     Y    =       11739805.30  feet           Y    =         3550223.05  meter
     Z    =       17042287.65                 Z    =         5182295.46
     XDOT =     -22858.448496                 XDOT =       -6927.629308
     YDOT =      -9623.367377  feet/sec       YDOT =       -3010.893375  meter/sec
     ZDOT =      -4260.579137                 ZDOT =       -1332.373348
 
              TDR Cartesian                         TDR Cartesian  
    -----------------------------------       --------------------------------
     X    =       -1759139.48                 X    =         -536185.71
     Y    =       14234815.61  feet           Y    =         4338771.80  meter
     Z    =       16988589.92                 Z    =         5178122.21
     XDOT =     -23637.888618                 XDOT =       -7204.828451
     YDOT =       2353.461319  feet/sec       YDOT =         717.335010  meter/sec
     ZDOT =      -4406.647172                 ZDOT =       -1343.146058
  
  
    The mean element set is posted at the UTC for which position is
    just north of the next ascending node relative to the above
    vector time
 
 
    TWO LINE MEAN ELEMENT SET
  
    ISS
    1 25544U 98067A   16105.56192737  .00016717  00000-0  10270-3 0  9156
    2 25544  51.6435  15.3913 0000857 341.6152  18.4970 15.53935603 35085
  
  
    Satellite: ISS
    Catalog Number: 25544
    Epoch time:      16105.56192737   =   yrday.fracday
    Element set:     915
    Inclination:       51.6435  deg
    RA of node:        15.3913  deg
    Eccentricity:     .0000857     
    Arg of perigee:   341.6152  deg
    Mean anomaly:      18.4970  deg
    Mean motion:   15.53935603  rev/day
    Decay rate:    1.67170E-04  rev/day^2
    Epoch rev:            3508
    Checksum:              305
 
 
    Coasting Arc #17 (Orbit 3522)
    ---------------------------------------
 
    Vector Time (GMT): 2016/106/12:23:00.506
    Vector Time (MET): N/A
    Weight (LBS)     : 943644.8
 
              M50 Cartesian                         M50 Keplerian  
    -----------------------------------       --------------------------------
     X    =        3992043.08                 A    =         6781072.16  meter
     Y    =       -2986154.37  meter          E    =           .0009577
     Z    =       -4605925.40                 I    =           51.70343
     XDOT =       6104.211843                 Wp   =          105.21933
     YDOT =       3504.875528  meter/sec      RA   =           10.05197  deg
     ZDOT =       3021.113210                 TA   =          194.93562
                                              MA   =          194.96393
                                              Ha   =            221.303  n.mi
                                              Hp   =            215.164
 
              M50 Cartesian                         J2K Cartesian  
    -----------------------------------       --------------------------------
     X    =       13097254.21                 X    =         4047511.94
     Y    =       -9797094.38  feet           Y    =        -2941202.88  meter
     Z    =      -15111303.80                 Z    =        -4586398.08
     XDOT =      20026.941742                 XDOT =        6049.890486
     YDOT =      11498.935458  feet/sec       YDOT =        3572.833378  meter/sec
     ZDOT =       9911.788748                 ZDOT =        3050.633783
 
              TDR Cartesian                         TDR Cartesian  
    -----------------------------------       --------------------------------
     X    =        6790744.08                 X    =         2069818.79
     Y    =      -14966025.86  feet           Y    =        -4561644.68  meter
     Z    =      -15025860.83                 Z    =        -4579882.38
     XDOT =      21943.697042                 XDOT =        6688.438859
     YDOT =       -113.442552  feet/sec       YDOT =         -34.577290  meter/sec
     ZDOT =      10039.363228                 ZDOT =        3059.997912
  
  
    The mean element set is posted at the UTC for which position is
    just north of the next ascending node relative to the above
    vector time
 
 
    TWO LINE MEAN ELEMENT SET
  
    ISS
    1 25544U 98067A   16106.52659810  .00016717  00000-0  10270-3 0  9164
    2 25544  51.6446  10.5839 0000888 347.3331  12.7800 15.53915251 35230
  
  
    Satellite: ISS
    Catalog Number: 25544
    Epoch time:      16106.52659810   =   yrday.fracday
    Element set:     916
    Inclination:       51.6446  deg
    RA of node:        10.5839  deg
    Eccentricity:     .0000888     
    Arg of perigee:   347.3331  deg
    Mean anomaly:      12.7800  deg
    Mean motion:   15.53915251  rev/day
    Decay rate:    1.67170E-04  rev/day^2
    Epoch rev:            3523
    Checksum:              298
 
             </PRE>
           </TD>
        </TR>
    </TABLE>
    
    <table align="center" border="0" width="600" cellpadding="0" cellspacing="0">
      <tr>
        <td align="center" valign="top"><hr size="1" width="600" noshade="noshade" />
        <font face="Arial,helvetica" size="-2">Curator: <a href="/cgi-bin/comment.cgi?jsc-hsfwebma@mail.nasa.gov">Kim 
          Dismukes</a> | Responsible NASA Official: <a href="/cgi-bin/comment.cgi?jsc-hsfwebma@mail.nasa.gov">Amiko Kauderer</a> | Updated: 06/08/2009<br />
        <a href="http://www.nasa.gov/about/highlights/HP_Privacy.html">Privacy Policy and Important Notices</a></font></td>
      </tr>
    </table>
    </body>
    </html>
